{
"type": "FeatureCollection",
"name": "leeds_boundary",
"crs": { "type": "name", "properties": { "name": "urn:ogc:def:crs:OGC:1.3:CRS84" } },
"features": [
{ "type": "Feature", "properties": { }, "geometry": { "type": "Polygon", "coordinates": [ [ [ -1.473191233408772, 53.799290756635052 ], [ -1.473324716701974, 53.79693934662852 ], [ -1.4736658537727, 53.794595293319567 ], [ -1.47421367524678, 53.792265019760421 ], [ -1.474966646077944, 53.789954910190218 ], [ -1.475922670121669, 53.787671292568128 ], [ -1.477079096233552, 53.785420421271908 ], [ -1.478432725871658, 53.783208460008701 ], [ -1.479979822178338, 53.781041464984249 ], [ -1.481716120513225, 53.778925368376107 ], [ -1.483636840405378, 53.776865962155277 ], [ -1.485736698888983, 53.774868882299671 ], [ -1.488009925183538, 53.772939593441713 ], [ -1.490450276676147, 53.77108337399126 ], [ -1.493051056160347, 53.769305301773272 ], [ -1.495805130282847, 53.767610240218573 ], [ -1.498704949146676, 53.76600282514449 ], [ -1.501742567016487, 53.764487452160033 ], [ -1.504909664069159, 53.763068264729327 ], [ -1.508197569130417, 53.76174914292465 ], [ -1.511597283335924, 53.760533692898463 ], [ -1.515099504653151, 53.759425237102612 ], [ -1.518694653198396, 53.758426805279917 ], [ -1.522372897281536, 53.757541126252129 ], [ -1.526124180109437, 53.756770620525486 ], [ -1.529938247077512, 53.756117393733419 ], [ -1.533804673577607, 53.755583230933532 ], [ -1.537712893249224, 53.755169591773495 ], [ -1.541652226600178, 53.754877606538841 ], [ -1.545611909921923, 53.75470807309275 ], [ -1.549581124424171, 53.754661454715716 ], [ -1.553549025512927, 53.754737878851124 ], [ -1.557504772135789, 53.754937136759352 ], [ -1.561437556118164, 53.755258684082129 ], [ -1.565336631414106, 53.755701642314918 ], [ -1.569191343195659, 53.756264801184024 ], [ -1.57299115670492, 53.756946621921976 ], [ -1.576725685793579, 53.757745241432708 ], [ -1.580384721075335, 53.758658477335977 ], [ -1.583958257617465, 53.759683833877183 ], [ -1.587436522098828, 53.76081850868799 ], [ -1.590809999362723, 53.762059400379442 ], [ -1.594069458294425, 53.763403116948112 ], [ -1.597205976954654, 53.764845984973107 ], [ -1.600210966901971, 53.766384059579664 ], [ -1.60307619663886, 53.768013135143569 ], [ -1.605793814118314, 53.769728756707742 ], [ -1.60835636824983, 53.771526232081406 ], [ -1.610756829346096, 53.773400644589451 ], [ -1.612988608454093, 53.775346866438447 ], [ -1.615045575516958, 53.77735957266394 ], [ -1.616922076315763, 53.779433255621917 ], [ -1.618612948143283, 53.781562239985824 ], [ -1.620113534164897, 53.783740698209087 ], [ -1.621419696425004, 53.785962666411884 ], [ -1.622527827460696, 53.788222060649538 ], [ -1.62343486048791, 53.790512693518707 ], [ -1.624138278128893, 53.792828291056757 ], [ -1.624636119653601, 53.795162509888534 ], [ -1.624926986711437, 53.797508954574212 ], [ -1.625010047533735, 53.799861195111014 ], [ -1.62488503959144, 53.802212784541197 ], [ -1.624552270696566, 53.804557276618176 ], [ -1.62401261854023, 53.806888243482483 ], [ -1.623267528664336, 53.809199293299102 ], [ -1.622319010868348, 53.81148408780733 ], [ -1.621169634056904, 53.813736359735309 ], [ -1.619822519538501, 53.815949930030371 ], [ -1.618281332789858, 53.818118724857946 ], [ -1.616550273704974, 53.820236792321566 ], [ -1.614634065352362, 53.822298318857236 ], [ -1.612537941268265, 53.8242976452565 ], [ -1.61026763131804, 53.826229282273395 ], [ -1.607829346162156, 53.828087925771229 ], [ -1.605229760367453, 53.829868471366709 ], [ -1.602475994208469, 53.831566028530183 ], [ -1.599575594207604, 53.833175934101931 ], [ -1.596536512466809, 53.834693765186508 ], [ -1.593367084847252, 53.83611535138828 ], [ -1.590076008056991, 53.837436786353528 ], [ -1.586672315710159, 53.838654438586218 ], [ -1.583165353424377, 53.839764961506617 ], [ -1.579564753026213, 53.840765302723938 ], [ -1.575880405937352, 53.841652712496654 ], [ -1.572122435816749, 53.842424751355985 ], [ -1.568301170536477, 53.843079296871096 ], [ -1.564427113571104, 53.84361454953612 ], [ -1.560510914882383, 53.844029037762496 ], [ -1.556563341382632, 53.844321621962088 ], [ -1.552595247061594, 53.844491497709299 ], [ -1.548617542862669, 53.844538197973236 ], [ -1.544641166395202, 53.844461594413431 ], [ -1.540677051570072, 53.844261897735237 ], [ -1.536736098246081, 53.843939657104265 ], [ -1.532829141974582, 53.843495758621096 ], [ -1.528966923929482, 53.842931422861106 ], [ -1.525160061109132, 53.8422482014861 ], [ -1.521419016895749, 53.841447972937871 ], [ -1.517754072056785, 53.840532937225731 ], [ -1.514175296271294, 53.839505609823476 ], [ -1.510692520262556, 53.838368814692693 ], [ -1.507315308616308, 53.837125676453034 ], [ -1.504052933361673, 53.835779611721698 ], [ -1.500914348389421, 53.834334319646587 ], [ -1.497908164779537, 53.83279377166096 ], [ -1.495042627107108, 53.831162200487888 ], [ -1.492325590792494, 53.829444088426804 ], [ -1.489764500558378, 53.827644154954946 ], [ -1.487366370052871, 53.825767343678841 ], [ -1.485137762694162, 53.823818808673238 ], [ -1.483084773788435, 53.821803900246003 ], [ -1.481213013968834, 53.819728150168785 ], [ -1.479527593999251, 53.817597256415887 ], [ -1.478033110982529, 53.815417067453438 ], [ -1.476733636008482, 53.81319356612353 ], [ -1.475632703272822, 53.810932853167998 ], [ -1.474733300693731, 53.808641130438232 ], [ -1.474037862048454, 53.806324683837531 ], [ -1.473548260647841, 53.803989866043551 ], [ -1.473265804562369, 53.801643079058358 ], [ -1.473191233408772, 53.799290756635052 ] ] ] } }
]
}
